{"type": "FeatureCollection", "features": [ {"type": "Feature", "properties": {"norad_id": 66600, "name": "STARLINK-35980", "group": "last-30-days", "lat": -0.655050835784691, "lon": -28.081480446570396, "alt_km": 443.9065977969922, "timestamp": "2025-12-19T20:42:58.811280+00:00", "meta": {"OBJECT_NAME": "STARLINK-35980", "OBJECT_ID": "2025-270N", "EPOCH": "2025-12-19T08:00:01.999872", "MEAN_MOTION": 15.40672233, "ECCENTRICITY": 0.00021192, "INCLINATION": 42.9998, "RA_OF_ASC_NODE": 154.2694, "ARG_OF_PERICENTER": 270.2201, "MEAN_ANOMALY": 208.5112, "EPHEMERIS_TYPE": 0, "CLASSIFICATION_TYPE": "U", "NORAD_CAT_ID": 66600, "ELEMENT_SET_NO": 999, "REV_AT_EPOCH": 536, "BSTAR": 0.0011430487, "MEAN_MOTION_DOT": 0.00047701, "MEAN_MOTION_DDOT": 0}, "tle": {"line1": "1 66600U 25270N   25353.33335648  .00047701  00000+0  11430-2 0  9996", "line2": "2 66600  42.9998 154.2694 0002119 270.2201 208.5112 15.40672233  5365"}}, "geometry": {"type": "Point", "coordinates": [-28.081480446570396, -0.655050835784691]}}, {"type": "Feature", "properties": {"norad_id": 66601, "name": "STARLINK-35978", "group": "last-30-days", "lat": 42.39794579848507, "lon": -130.06016909452597, "alt_km": 438.1241391683161, "timestamp": "2025-12-19T20:42:58.811291+00:00", "meta": {"OBJECT_NAME": "STARLINK-35978", "OBJECT_ID": "2025-270P", "EPOCH": "2025-12-19T00:00:02.000160", "MEAN_MOTION": 15.4067904, "ECCENTRICITY": 0.00015762, "INCLINATION": 42.9991, "RA_OF_ASC_NODE": 156.4332, "ARG_OF_PERICENTER": 273.7278, "MEAN_ANOMALY": 54.5156, "EPHEMERIS_TYPE": 0, "CLASSIFICATION_TYPE": "U", "NORAD_CAT_ID": 66601, "ELEMENT_SET_NO": 999, "REV_AT_EPOCH": 524, "BSTAR": 0.0012341466, "MEAN_MOTION_DOT": 0.00051563, "MEAN_MOTION_DDOT": 0}, "tle": {"line1": "1 66601U 25270P   25353.00002315  .00051563  00000+0  12341-2 0  9996", "line2": "2 66601  42.9991 156.4332 0001576 273.7278  54.5156 15.40679040  5247"}}, "geometry": {"type": "Point", "coordinates": [-130.06016909452597, 42.39794579848507]}}, {"type": "Feature", "properties": {"norad_id": 66602, "name": "STARLINK-36050", "group": "last-30-days", "lat": 4.6128747822080065, "lon": 156.60388728104766, "alt_km": 442.9087865024603, "timestamp": "2025-12-19T20:42:58.811301+00:00", "meta": {"OBJECT_NAME": "STARLINK-36050", "OBJECT_ID": "2025-270Q", "EPOCH": "2025-12-19T03:34:21.922176", "MEAN_MOTION": 15.40717838, "ECCENTRICITY": 0.00010464, "INCLINATION": 42.9985, "RA_OF_ASC_NODE": 155.7541, "ARG_OF_PERICENTER": 281.3711, "MEAN_ANOMALY": 78.7028, "EPHEMERIS_TYPE": 0, "CLASSIFICATION_TYPE": "U", "NORAD_CAT_ID": 66602, "ELEMENT_SET_NO": 999, "REV_AT_EPOCH": 523, "BSTAR": 0.0006744634, "MEAN_MOTION_DOT": 0.0002799, "MEAN_MOTION_DDOT": 0}, "tle": {"line1": "1 66602U 25270Q   25353.14886484  .00027990  00000+0  67446-3 0  9993", "line2": "2 66602  42.9985 155.7541 0001046 281.3711  78.7028 15.40717838  5237"}}, "geometry": {"type": "Point", "coordinates": [156.60388728104766, 4.6128747822080065]}}, {"type": "Feature", "properties": {"norad_id": 66603, "name": "STARLINK-36048", "group": "last-30-days", "lat": 36.71012815359357, "lon": -81.78251877581046, "alt_km": 438.97794970342693, "timestamp": "2025-12-19T20:42:58.811314+00:00", "meta": {"OBJECT_NAME": "STARLINK-36048", "OBJECT_ID": "2025-270R", "EPOCH": "2025-12-19T08:00:01.999872", "MEAN_MOTION": 15.40670921, "ECCENTRICITY": 0.00014344, "INCLINATION": 42.9993, "RA_OF_ASC_NODE": 154.4207, "ARG_OF_PERICENTER": 268.6082, "MEAN_ANOMALY": 147.9238, "EPHEMERIS_TYPE": 0, "CLASSIFICATION_TYPE": "U", "NORAD_CAT_ID": 66603, "ELEMENT_SET_NO": 999, "REV_AT_EPOCH": 536, "BSTAR": 0.0013336397, "MEAN_MOTION_DOT": 0.0005576, "MEAN_MOTION_DDOT": 0}, "tle": {"line1": "1 66603U 25270R   25353.33335648  .00055760  00000+0  13336-2 0  9990", "line2": "2 66603  42.9993 154.4207 0001434 268.6082 147.9238 15.40670921  5369"}}, "geometry": {"type": "Point", "coordinates": [-81.78251877581046, 36.71012815359357]}}, {"type": "Feature", "properties": {"norad_id": 66604, "name": "STARLINK-35977", "group": "last-30-days", "lat": 23.84470790477304, "lon": -57.00908260741494, "alt_km": 441.1072358391748, "timestamp": "2025-12-19T20:42:58.811324+00:00", "meta": {"OBJECT_NAME": "STARLINK-35977", "OBJECT_ID": "2025-270S", "EPOCH": "2025-12-19T08:00:01.999872", "MEAN_MOTION": 15.40667903, "ECCENTRICITY": 0.0002158, "INCLINATION": 42.9995, "RA_OF_ASC_NODE": 154.3596, "ARG_OF_PERICENTER": 267.9935, "MEAN_ANOMALY": 173.4284, "EPHEMERIS_TYPE": 0, "CLASSIFICATION_TYPE": "U", "NORAD_CAT_ID": 66604, "ELEMENT_SET_NO": 999, "REV_AT_EPOCH": 546, "BSTAR": 0.0012033299, "MEAN_MOTION_DOT": 0.00050242, "MEAN_MOTION_DDOT": 0}, "tle": {"line1": "1 66604U 25270S   25353.33335648  .00050242  00000+0  12033-2 0  9994", "line2": "2 66604  42.9995 154.3596 0002158 267.9935 173.4284 15.40667903  5467"}}, "geometry": {"type": "Point", "coordinates": [-57.00908260741494, 23.84470790477304]}}, {"type": "Feature", "properties": {"norad_id": 66605, "name": "STARLINK-36052", "group": "last-30-days", "lat": -24.961308467082613, "lon": 1.094328470562708, "alt_km": 445.53471595039446, "timestamp": "2025-12-19T20:42:58.811334+00:00", "meta": {"OBJECT_NAME": "STARLINK-36052", "OBJECT_ID": "2025-270T", "EPOCH": "2025-12-19T08:00:01.999872", "MEAN_MOTION": 15.40629753, "ECCENTRICITY": 0.00021471, "INCLINATION": 42.9996, "RA_OF_ASC_NODE": 154.1789, "ARG_OF_PERICENTER": 266.6302, "MEAN_ANOMALY": 249.4683, "EPHEMERIS_TYPE": 0, "CLASSIFICATION_TYPE": "U", "NORAD_CAT_ID": 66605, "ELEMENT_SET_NO": 999, "REV_AT_EPOCH": 546, "BSTAR": 0.0013369028, "MEAN_MOTION_DOT": 0.00055823, "MEAN_MOTION_DDOT": 0}, "tle": {"line1": "1 66605U 25270T   25353.33335648  .00055823  00000+0  13369-2 0  9998", "line2": "2 66605  42.9996 154.1789 0002147 266.6302 249.4683 15.40629753  5461"}}, "geometry": {"type": "Point", "coordinates": [1.094328470562708, -24.961308467082613]}}, {"type": "Feature", "properties": {"norad_id": 66606, "name": "STARLINK-36063", "group": "last-30-days", "lat": -42.760571389353494, "lon": 68.04974123583223, "alt_km": 416.9028978346523, "timestamp": "2025-12-19T20:42:58.811347+00:00", "meta": {"OBJECT_NAME": "STARLINK-36063", "OBJECT_ID": "2025-270U", "EPOCH": "2025-12-18T20:20:48.158304", "MEAN_MOTION": 15.50580299, "ECCENTRICITY": 0.000159, "INCLINATION": 42.9988, "RA_OF_ASC_NODE": 156.9256, "ARG_OF_PERICENTER": 261.4972, "MEAN_ANOMALY": 98.5708, "EPHEMERIS_TYPE": 0, "CLASSIFICATION_TYPE": "U", "NORAD_CAT_ID": 66606, "ELEMENT_SET_NO": 999, "REV_AT_EPOCH": 529, "BSTAR": 0.001220157, "MEAN_MOTION_DOT": 0.00071903, "MEAN_MOTION_DDOT": 0}, "tle": {"line1": "1 66606U 25270U   25352.84777961  .00071903  00000+0  12202-2 0  9994", "line2": "2 66606  42.9988 156.9256 0001590 261.4972  98.5708 15.50580299  5293"}}, "geometry": {"type": "Point", "coordinates": [68.04974123583223, -42.760571389353494]}}, {"type": "Feature", "properties": {"norad_id": 66607, "name": "STARLINK-35993", "group": "last-30-days", "lat": -31.764599777444012, "lon": 12.736916116950097, "alt_km": 448.2463133903111, "timestamp": "2025-12-19T20:42:58.811357+00:00", "meta": {"OBJECT_NAME": "STARLINK-35993", "OBJECT_ID": "2025-270V", "EPOCH": "2025-12-19T08:00:01.999872", "MEAN_MOTION": 15.42979222, "ECCENTRICITY": 0.00013219, "INCLINATION": 42.9995, "RA_OF_ASC_NODE": 154.153, "ARG_OF_PERICENTER": 286.7423, "MEAN_ANOMALY": 240.1451, "EPHEMERIS_TYPE": 0, "CLASSIFICATION_TYPE": "U", "NORAD_CAT_ID": 66607, "ELEMENT_SET_NO": 999, "REV_AT_EPOCH": 536, "BSTAR": -0.065893345, "MEAN_MOTION_DOT": -0.02611578, "MEAN_MOTION_DDOT": 0}, "tle": {"line1": "1 66607U 25270V   25353.33335648 -.02611578  00000+0 -65893-1 0  9997", "line2": "2 66607  42.9995 154.1530 0001321 286.7423 240.1451 15.42979222  5367"}}, "geometry": {"type": "Point", "coordinates": [12.736916116950097, -31.764599777444012]}}, {"type": "Feature", "properties": {"norad_id": 66608, "name": "STARLINK-36036", "group": "last-30-days", "lat": -42.57180100654383, "lon": 70.62413747210252, "alt_km": 416.8753282712187, "timestamp": "2025-12-19T20:42:58.811368+00:00", "meta": {"OBJECT_NAME": "STARLINK-36036", "OBJECT_ID": "2025-270W", "EPOCH": "2025-12-18T20:20:18.373632", "MEAN_MOTION": 15.50586069, "ECCENTRICITY": 0.00016708, "INCLINATION": 42.9988, "RA_OF_ASC_NODE": 156.9232, "ARG_OF_PERICENTER": 267.7224, "MEAN_ANOMALY": 92.3445, "EPHEMERIS_TYPE": 0, "CLASSIFICATION_TYPE": "U", "NORAD_CAT_ID": 66608, "ELEMENT_SET_NO": 999, "REV_AT_EPOCH": 513, "BSTAR": 0.0010510214, "MEAN_MOTION_DOT": 0.00061821, "MEAN_MOTION_DDOT": 0}, "tle": {"line1": "1 66608U 25270W   25352.84743488  .00061821  00000+0  10510-2 0  9991", "line2": "2 66608  42.9988 156.9232 0001670 267.7224  92.3445 15.50586069  5131"}}, "geometry": {"type": "Point", "coordinates": [70.62413747210252, -42.57180100654383]}}, {"type": "Feature", "properties": {"norad_id": 66609, "name": "STARLINK-36034", "group": "last-30-days", "lat": -42.328414386351504, "lon": 73.15437483446293, "alt_km": 417.0451892885367, "timestamp": "2025-12-19T20:42:58.811380+00:00", "meta": {"OBJECT_NAME": "STARLINK-36034", "OBJECT_ID": "2025-270X", "EPOCH": "2025-12-18T18:47:03.089760", "MEAN_MOTION": 15.50589541, "ECCENTRICITY": 0.00016841, "INCLINATION": 42.9988, "RA_OF_ASC_NODE": 157.2976, "ARG_OF_PERICENTER": 249.3015, "MEAN_ANOMALY": 110.7665, "EPHEMERIS_TYPE": 0, "CLASSIFICATION_TYPE": "U", "NORAD_CAT_ID": 66609, "ELEMENT_SET_NO": 999, "REV_AT_EPOCH": 512, "BSTAR": 0.00066974617, "MEAN_MOTION_DOT": 0.00039161, "MEAN_MOTION_DDOT": 0}, "tle": {"line1": "1 66609U 25270X   25352.78267465  .00039161  00000+0  66975-3 0  9990", "line2": "2 66609  42.9988 157.2976 0001684 249.3015 110.7665 15.50589541  5126"}}, "geometry": {"type": "Point", "coordinates": [73.15437483446293, -42.328414386351504]}}]}